{"type": "FeatureCollection", "features": [ {"type": "Feature", "properties": {"norad_id": 66423, "name": "STARLINK-35618", "group": "last-30-days", "lat": 2.208943589724141, "lon": 109.87947244728115, "alt_km": 414.85106639625883, "timestamp": "2025-12-02T10:50:46.051780+00:00", "meta": {"OBJECT_NAME": "STARLINK-35618", "OBJECT_ID": "2025-259B", "EPOCH": "2025-12-02T04:00:03.998880", "MEAN_MOTION": 15.5050011, "ECCENTRICITY": 0.0001509, "INCLINATION": 42.9996, "RA_OF_ASC_NODE": 109.1756, "ARG_OF_PERICENTER": 259.1553, "MEAN_ANOMALY": 310.2477, "EPHEMERIS_TYPE": 0, "CLASSIFICATION_TYPE": "U", "NORAD_CAT_ID": 66423, "ELEMENT_SET_NO": 999, "REV_AT_EPOCH": 458, "BSTAR": 0.00114, "MEAN_MOTION_DOT": 0.00066924, "MEAN_MOTION_DDOT": 0}, "tle": {"line1": "1 66423U 25259B   25336.16671295  .00066924  00000+0  11400-2 0  9994", "line2": "2 66423  42.9996 109.1756 0001509 259.1553 310.2477 15.50500110  4585"}}, "geometry": {"type": "Point", "coordinates": [109.87947244728115, 2.208943589724141]}}, {"type": "Feature", "properties": {"norad_id": 66424, "name": "STARLINK-35588", "group": "last-30-days", "lat": 3.573778651094792, "lon": 111.34658199654307, "alt_km": 414.66175916901284, "timestamp": "2025-12-02T10:50:46.051790+00:00", "meta": {"OBJECT_NAME": "STARLINK-35588", "OBJECT_ID": "2025-259C", "EPOCH": "2025-12-02T04:00:03.998880", "MEAN_MOTION": 15.50711365, "ECCENTRICITY": 0.0001059, "INCLINATION": 42.9995, "RA_OF_ASC_NODE": 109.1723, "ARG_OF_PERICENTER": 252.4359, "MEAN_ANOMALY": 318.8591, "EPHEMERIS_TYPE": 0, "CLASSIFICATION_TYPE": "U", "NORAD_CAT_ID": 66424, "ELEMENT_SET_NO": 999, "REV_AT_EPOCH": 458, "BSTAR": -0.0046754, "MEAN_MOTION_DOT": -0.00266737, "MEAN_MOTION_DDOT": 0}, "tle": {"line1": "1 66424U 25259C   25336.16671295 -.00266737  00000+0 -46754-2 0  9991", "line2": "2 66424  42.9995 109.1723 0001059 252.4359 318.8591 15.50711365  4586"}}, "geometry": {"type": "Point", "coordinates": [111.34658199654307, 3.573778651094792]}}, {"type": "Feature", "properties": {"norad_id": 66425, "name": "STARLINK-35555", "group": "last-30-days", "lat": 4.821812985908276, "lon": 112.69027445441823, "alt_km": 414.4568410937345, "timestamp": "2025-12-02T10:50:46.051800+00:00", "meta": {"OBJECT_NAME": "STARLINK-35555", "OBJECT_ID": "2025-259D", "EPOCH": "2025-12-02T04:00:03.998880", "MEAN_MOTION": 15.50503819, "ECCENTRICITY": 0.0001427, "INCLINATION": 42.9996, "RA_OF_ASC_NODE": 109.1649, "ARG_OF_PERICENTER": 263.579, "MEAN_ANOMALY": 309.6609, "EPHEMERIS_TYPE": 0, "CLASSIFICATION_TYPE": "U", "NORAD_CAT_ID": 66425, "ELEMENT_SET_NO": 999, "REV_AT_EPOCH": 458, "BSTAR": 0.0011791, "MEAN_MOTION_DOT": 0.0006926, "MEAN_MOTION_DDOT": 0}, "tle": {"line1": "1 66425U 25259D   25336.16671295  .00069260  00000+0  11791-2 0  9995", "line2": "2 66425  42.9996 109.1649 0001427 263.5790 309.6609 15.50503819  4587"}}, "geometry": {"type": "Point", "coordinates": [112.69027445441823, 4.821812985908276]}}, {"type": "Feature", "properties": {"norad_id": 66426, "name": "STARLINK-35589", "group": "last-30-days", "lat": 6.112212482643712, "lon": 114.09190391575775, "alt_km": 414.3590461838148, "timestamp": "2025-12-02T10:50:46.051813+00:00", "meta": {"OBJECT_NAME": "STARLINK-35589", "OBJECT_ID": "2025-259E", "EPOCH": "2025-12-02T04:00:03.998880", "MEAN_MOTION": 15.50495469, "ECCENTRICITY": 0.000148, "INCLINATION": 42.9996, "RA_OF_ASC_NODE": 109.1615, "ARG_OF_PERICENTER": 262.4746, "MEAN_ANOMALY": 312.676, "EPHEMERIS_TYPE": 0, "CLASSIFICATION_TYPE": "U", "NORAD_CAT_ID": 66426, "ELEMENT_SET_NO": 999, "REV_AT_EPOCH": 458, "BSTAR": 0.0011699, "MEAN_MOTION_DOT": 0.0006869, "MEAN_MOTION_DDOT": 0}, "tle": {"line1": "1 66426U 25259E   25336.16671295  .00068690  00000+0  11699-2 0  9999", "line2": "2 66426  42.9996 109.1615 0001480 262.4746 312.6760 15.50495469  4582"}}, "geometry": {"type": "Point", "coordinates": [114.09190391575775, 6.112212482643712]}}, {"type": "Feature", "properties": {"norad_id": 66427, "name": "STARLINK-35611", "group": "last-30-days", "lat": 7.414090714074033, "lon": 115.51467622548421, "alt_km": 414.28535986646057, "timestamp": "2025-12-02T10:50:46.051825+00:00", "meta": {"OBJECT_NAME": "STARLINK-35611", "OBJECT_ID": "2025-259F", "EPOCH": "2025-12-02T04:00:03.998880", "MEAN_MOTION": 15.5049993, "ECCENTRICITY": 0.0001561, "INCLINATION": 42.9996, "RA_OF_ASC_NODE": 109.1558, "ARG_OF_PERICENTER": 258.2864, "MEAN_ANOMALY": 318.7847, "EPHEMERIS_TYPE": 0, "CLASSIFICATION_TYPE": "U", "NORAD_CAT_ID": 66427, "ELEMENT_SET_NO": 999, "REV_AT_EPOCH": 458, "BSTAR": 0.0011259, "MEAN_MOTION_DOT": 0.00066084, "MEAN_MOTION_DDOT": 0}, "tle": {"line1": "1 66427U 25259F   25336.16671295  .00066084  00000+0  11259-2 0  9997", "line2": "2 66427  42.9996 109.1558 0001561 258.2864 318.7847 15.50499930  4583"}}, "geometry": {"type": "Point", "coordinates": [115.51467622548421, 7.414090714074033]}}, {"type": "Feature", "properties": {"norad_id": 66428, "name": "STARLINK-35610", "group": "last-30-days", "lat": 8.700729436362904, "lon": 116.93525890452518, "alt_km": 414.0774592289472, "timestamp": "2025-12-02T10:50:46.051835+00:00", "meta": {"OBJECT_NAME": "STARLINK-35610", "OBJECT_ID": "2025-259G", "EPOCH": "2025-12-02T04:00:03.998880", "MEAN_MOTION": 15.50497173, "ECCENTRICITY": 0.0001445, "INCLINATION": 42.9996, "RA_OF_ASC_NODE": 109.1513, "ARG_OF_PERICENTER": 260.3727, "MEAN_ANOMALY": 318.6114, "EPHEMERIS_TYPE": 0, "CLASSIFICATION_TYPE": "U", "NORAD_CAT_ID": 66428, "ELEMENT_SET_NO": 999, "REV_AT_EPOCH": 458, "BSTAR": 0.0011145, "MEAN_MOTION_DOT": 0.00065397, "MEAN_MOTION_DDOT": 0}, "tle": {"line1": "1 66428U 25259G   25336.16671295  .00065397  00000+0  11145-2 0  9998", "line2": "2 66428  42.9996 109.1513 0001445 260.3727 318.6114 15.50497173  4581"}}, "geometry": {"type": "Point", "coordinates": [116.93525890452518, 8.700729436362904]}}, {"type": "Feature", "properties": {"norad_id": 66429, "name": "STARLINK-35533", "group": "last-30-days", "lat": 9.988794953563579, "lon": 118.37163020086473, "alt_km": 413.9347477367528, "timestamp": "2025-12-02T10:50:46.051845+00:00", "meta": {"OBJECT_NAME": "STARLINK-35533", "OBJECT_ID": "2025-259H", "EPOCH": "2025-12-02T04:00:03.998880", "MEAN_MOTION": 15.50495271, "ECCENTRICITY": 0.0001495, "INCLINATION": 42.9997, "RA_OF_ASC_NODE": 109.1452, "ARG_OF_PERICENTER": 260.2893, "MEAN_ANOMALY": 320.6145, "EPHEMERIS_TYPE": 0, "CLASSIFICATION_TYPE": "U", "NORAD_CAT_ID": 66429, "ELEMENT_SET_NO": 999, "REV_AT_EPOCH": 458, "BSTAR": 0.0011542, "MEAN_MOTION_DOT": 0.00067752, "MEAN_MOTION_DDOT": 0}, "tle": {"line1": "1 66429U 25259H   25336.16671295  .00067752  00000+0  11542-2 0  9997", "line2": "2 66429  42.9997 109.1452 0001495 260.2893 320.6145 15.50495271  4587"}}, "geometry": {"type": "Point", "coordinates": [118.37163020086473, 9.988794953563579]}}, {"type": "Feature", "properties": {"norad_id": 66430, "name": "STARLINK-35470", "group": "last-30-days", "lat": 11.262568532330366, "lon": 119.8128085732522, "alt_km": 413.78914342917506, "timestamp": "2025-12-02T10:50:46.051861+00:00", "meta": {"OBJECT_NAME": "STARLINK-35470", "OBJECT_ID": "2025-259J", "EPOCH": "2025-12-02T04:00:03.998880", "MEAN_MOTION": 15.5048742, "ECCENTRICITY": 0.0001514, "INCLINATION": 42.9997, "RA_OF_ASC_NODE": 109.1416, "ARG_OF_PERICENTER": 261.3053, "MEAN_ANOMALY": 321.5133, "EPHEMERIS_TYPE": 0, "CLASSIFICATION_TYPE": "U", "NORAD_CAT_ID": 66430, "ELEMENT_SET_NO": 999, "REV_AT_EPOCH": 458, "BSTAR": 0.0011418, "MEAN_MOTION_DOT": 0.00066996, "MEAN_MOTION_DDOT": 0}, "tle": {"line1": "1 66430U 25259J   25336.16671295  .00066996  00000+0  11418-2 0  9990", "line2": "2 66430  42.9997 109.1416 0001514 261.3053 321.5133 15.50487420  4585"}}, "geometry": {"type": "Point", "coordinates": [119.8128085732522, 11.262568532330366]}}, {"type": "Feature", "properties": {"norad_id": 66431, "name": "STARLINK-35439", "group": "last-30-days", "lat": 12.537543698246314, "lon": 121.2738337864979, "alt_km": 413.6841035484749, "timestamp": "2025-12-02T10:50:46.051870+00:00", "meta": {"OBJECT_NAME": "STARLINK-35439", "OBJECT_ID": "2025-259K", "EPOCH": "2025-12-02T04:00:03.998880", "MEAN_MOTION": 15.50489253, "ECCENTRICITY": 0.0001505, "INCLINATION": 42.9997, "RA_OF_ASC_NODE": 109.1355, "ARG_OF_PERICENTER": 257.2785, "MEAN_ANOMALY": 327.4581, "EPHEMERIS_TYPE": 0, "CLASSIFICATION_TYPE": "U", "NORAD_CAT_ID": 66431, "ELEMENT_SET_NO": 999, "REV_AT_EPOCH": 458, "BSTAR": 0.0011389, "MEAN_MOTION_DOT": 0.00066832, "MEAN_MOTION_DDOT": 0}, "tle": {"line1": "1 66431U 25259K   25336.16671295  .00066832  00000+0  11389-2 0  9997", "line2": "2 66431  42.9997 109.1355 0001505 257.2785 327.4581 15.50489253  4582"}}, "geometry": {"type": "Point", "coordinates": [121.2738337864979, 12.537543698246314]}}, {"type": "Feature", "properties": {"norad_id": 66432, "name": "STARLINK-35446", "group": "last-30-days", "lat": 13.800532336882908, "lon": 122.74561123526969, "alt_km": 413.5676811246376, "timestamp": "2025-12-02T10:50:46.051880+00:00", "meta": {"OBJECT_NAME": "STARLINK-35446", "OBJECT_ID": "2025-259L", "EPOCH": "2025-12-02T04:00:03.998880", "MEAN_MOTION": 15.50487782, "ECCENTRICITY": 0.000159, "INCLINATION": 42.9996, "RA_OF_ASC_NODE": 109.1302, "ARG_OF_PERICENTER": 256.7158, "MEAN_ANOMALY": 329.9353, "EPHEMERIS_TYPE": 0, "CLASSIFICATION_TYPE": "U", "NORAD_CAT_ID": 66432, "ELEMENT_SET_NO": 999, "REV_AT_EPOCH": 458, "BSTAR": 0.0011077, "MEAN_MOTION_DOT": 0.00064971, "MEAN_MOTION_DDOT": 0}, "tle": {"line1": "1 66432U 25259L   25336.16671295  .00064971  00000+0  11077-2 0  9994", "line2": "2 66432  42.9996 109.1302 0001590 256.7158 329.9353 15.50487782  4585"}}, "geometry": {"type": "Point", "coordinates": [122.74561123526969, 13.800532336882908]}}]}